NORAD_CAT_ID,OBJECT_NAME,OBJECT_TYPE,EPOCH,MEAN_MOTION,ECCENTRICITY,INCLINATION,RA_OF_ASC_NODE,ARG_OF_PERICENTER,MEAN_ANOMALY,BSTAR,MEAN_MOTION_DOT,MEAN_MOTION_DDOT,TLE_LINE0,TLE_LINE1,TLE_LINE2,SEMIMAJOR_AXIS,PERIOD,APOGEE,PERIGEE,DECAYED
53787.0,STARLINK-4743,PAYLOAD,2022-11-26 22:00:00,15.08865166,0.0001836,53.2145,255.4515,51.895,336.3707,-0.0037174,-0.00059008,0.0,0 STARLINK-4743,1 53787U 22111Q   22330.91667824 -.00059008  00000-0 -37174-2 0  9998,2 53787  53.2145 255.4515 0001836  51.8950 336.3707 15.08865166 11912,6917.803000000001,95.436,540.939,538.398,0.0
53787.0,STARLINK-4743,PAYLOAD,2022-11-27 14:00:01,15.08822518,0.0001798,53.2139,252.4582,50.2497,1.2034,0.0019933,0.00031563,0.0,0 STARLINK-4743,1 53787U 22111Q   22331.58334491  .00031563  00000-0  19933-2 0  9990,2 53787  53.2139 252.4582 0001798  50.2497   1.2034 15.08822518  1309,6917.934,95.439,541.043,538.555,0.0
53787.0,STARLINK-4743,PAYLOAD,2022-11-27 22:00:00,15.08871496,0.0001876,53.2138,250.9625,50.4163,12.6182,-0.0042669,-0.00067618,0.0,0 STARLINK-4743,1 53787U 22111Q   22331.91667824 -.00067618  00000-0 -42669-2 0  9990,2 53787  53.2138 250.9625 0001876  50.4163  12.6182 15.08871496  1307,6917.784000000002,95.436,540.947,538.351,0.0
53787.0,STARLINK-4743,PAYLOAD,2022-11-28 08:00:01,15.08835734,0.0001961,53.2141,249.0925,44.5243,123.0092,0.00068448,0.00010621,0.0,0 STARLINK-4743,1 53787U 22111Q   22332.33334491  .00010621  00000-0  68448-3 0  9992,2 53787  53.2141 249.0925 0001961  44.5243 123.0092 15.08835734 12125,6917.893,95.438,541.115,538.4019999999998,0.0
53787.0,STARLINK-4743,PAYLOAD,2022-11-28 22:00:01,15.08881932,0.0001916,53.2155,246.473,49.0173,48.8678,-0.0041923,-0.00066471,0.0,0 STARLINK-4743,1 53787U 22111Q   22332.91668981 -.00066471  00000-0 -41923-2 0  9994,2 53787  53.2155 246.4730 0001916  49.0173  48.8678 15.08881932  1300,6917.752,95.435,540.943,538.2919999999998,0.0
53787.0,STARLINK-4743,PAYLOAD,2022-11-29 14:00:01,15.08811588,0.000177,53.2158,243.4793,45.777,75.33,0.0014255999999999,0.00022456,0.0,0 STARLINK-4743,1 53787U 22111Q   22333.58335648  .00022456  00000-0  14256-2 0  9991,2 53787  53.2158 243.4793 0001770  45.7770  75.3300 15.08811588 12313,6917.967,95.439,541.057,538.6080000000002,0.0
53787.0,STARLINK-4743,PAYLOAD,2022-11-29 22:00:00,15.08842773,0.000189,53.2159,241.9837,46.0068,86.6051,-0.001249,-0.00020113,0.0,0 STARLINK-4743,1 53787U 22111Q   22333.91667824 -.00020113  00000-0 -12490-2 0  9990,2 53787  53.2159 241.9837 0001890  46.0068  86.6051 15.08842773  1308,6917.871999999999,95.437,541.044,538.429,0.0
53787.0,STARLINK-4743,PAYLOAD,2022-11-30 14:00:01,15.08807842,0.0001749,53.2162,238.9904,45.4177,110.4518,0.00172,0.00027168,0.0,0 STARLINK-4743,1 53787U 22111Q   22334.58335648  .00027168  00000-0  17200-2 0  9999,2 53787  53.2162 238.9904 0001749  45.4177 110.4518 15.08807842 12461,6917.979,95.44,541.054,538.634,0.0
53787.0,STARLINK-4743,PAYLOAD,2022-11-30 22:00:00,15.08847505,0.0001848,53.2169,237.4963,47.2735,120.0969,-0.0026033,-0.0004149,0.0,0 STARLINK-4743,1 53787U 22111Q   22334.91667824 -.00041490  00000-0 -26033-2 0  9990,2 53787  53.2169 237.4963 0001848  47.2735 120.0969 15.08847505  1305,6917.857,95.437,541.001,538.444,0.0
53787.0,STARLINK-4743,PAYLOAD,2022-12-01 14:00:01,15.08812203,0.0001705,53.2164,234.5007,43.8781,146.7072,0.0028332,0.00045057,0.0,0 STARLINK-4743,1 53787U 22111Q   22335.58334491  .00045057  00000-0  28332-2 0  9990,2 53787  53.2164 234.5007 0001705  43.8781 146.7072 15.08812203  1309,6917.965,95.439,541.01,538.651,0.0
53787.0,STARLINK-4743,PAYLOAD,2022-12-01 22:00:00,15.08849435,0.000184,53.2166,233.0055,43.0558,159.1045,-0.00080101,-0.00013017,0.0,0 STARLINK-4743,1 53787U 22111Q   22335.91667824 -.00013017  00000-0 -80101-3 0  9992,2 53787  53.2166 233.0055 0001840  43.0558 159.1045 15.08849435 12668,6917.852,95.437,540.989,538.444,0.0
53787.0,STARLINK-4743,PAYLOAD,2022-12-02 14:00:01,15.08809043,0.000184,53.2164,230.0115,48.8586,176.5166,0.0032112,0.00051146,0.0,0 STARLINK-4743,1 53787U 22111Q   22336.58334491  .00051146  00000-0  32112-2 0  9998,2 53787  53.2164 230.0115 0001840  48.8586 176.5166 15.08809043  1301,6917.975,95.44,541.113,538.567,0.0
53787.0,STARLINK-4743,PAYLOAD,2022-12-02 22:00:00,15.08849188,0.000196,53.2165,228.5165,47.6388,189.3141,-0.00087551,-0.00014199,0.0,0 STARLINK-4743,1 53787U 22111Q   22336.91667824 -.00014199  00000-0 -87551-3 0  9991,2 53787  53.2165 228.5165 0001960  47.6388 189.3141 15.08849188  1308,6917.852,95.437,541.073,538.361,0.0
53787.0,STARLINK-4743,PAYLOAD,2022-12-03 00:00:00,15.08846,0.0002017,53.2165,228.1428,46.5508,283.3031,-0.00060694,-9.936e-05,0.0,0 STARLINK-4743,1 53787U 22111Q   22337.00001157 -.00009936  00000-0 -60694-3 0  9995,2 53787  53.2165 228.1428 0002017  46.5508 283.3031 15.08846000 12835,6917.861999999999,95.437,541.122,538.332,0.0
53787.0,STARLINK-4743,PAYLOAD,2022-12-03 14:00:01,15.08804786,0.0001794,53.2161,225.5225,49.5051,210.6479,0.0031768,0.00050585,0.0,0 STARLINK-4743,1 53787U 22111Q   22337.58334491  .00050585  00000-0  31768-2 0  9991,2 53787  53.2161 225.5225 0001794  49.5051 210.6479 15.08804786  1308,6917.988,95.44,541.094,538.612,0.0
53787.0,STARLINK-4743,PAYLOAD,2022-12-03 22:00:00,15.08843306,0.0001928,53.2161,224.0277,47.3654,224.3625,-0.00087979,-0.00014264,0.0,0 STARLINK-4743,1 53787U 22111Q   22337.91667824 -.00014264  00000-0 -87979-3 0  9999,2 53787  53.2161 224.0277 0001928  47.3654 224.3625 15.08843306  1309,6917.87,95.437,541.069,538.4019999999998,0.0
53787.0,STARLINK-4743,PAYLOAD,2022-12-04 06:00:00,15.08853917,0.000193,53.2157,222.5314,43.9922,239.3252,-0.0030045,-0.00047807,0.0,0 STARLINK-4743,1 53787U 22111Q   22338.25001157 -.00047807  00000-0 -30045-2 0  9998,2 53787  53.2157 222.5314 0001930  43.9922 239.3252 15.08853917 13014,6917.8380000000025,95.437,541.038,538.368,0.0
53787.0,STARLINK-4743,PAYLOAD,2022-12-04 14:00:01,15.08801352,0.0001778,53.2157,221.0335,49.7764,245.1395,0.0032619,0.00051953,0.0,0 STARLINK-4743,1 53787U 22111Q   22338.58334491  .00051953  00000-0  32619-2 0  9998,2 53787  53.2157 221.0335 0001778  49.7764 245.1395 15.08801352  1307,6917.999,95.44,541.094,538.634,0.0
53787.0,STARLINK-4743,PAYLOAD,2022-12-04 22:00:00,15.08839495,0.0001947,53.2156,219.5388,47.103,259.3851,-0.00048554,-8.007e-05,0.0,0 STARLINK-4743,1 53787U 22111Q   22338.91667824 -.00008007  00000-0 -48554-3 0  9994,2 53787  53.2156 219.5388 0001947  47.1030 259.3851 15.08839495 13117,6917.882,95.438,541.094,538.4,0.0
53787.0,STARLINK-4743,PAYLOAD,2022-12-05 14:00:01,15.08845864,0.0001822,53.2154,216.5444,50.2755,279.4763,0.0005195,7.991e-05,0.0,0 STARLINK-4743,1 53787U 22111Q   22339.58335648  .00007991  00000-0  51950-3 0  9997,2 53787  53.2154 216.5444 0001822  50.2755 279.4763 15.08845864  1306,6917.861999999999,95.437,540.988,538.467,0.0
53787.0,STARLINK-4743,PAYLOAD,2022-12-05 15:43:26,15.08865111,0.0002068,53.2168,216.2217,49.1453,310.9718,-0.00015747,-2.795e-05,0.0,0 STARLINK-4743,1 53787U 22111Q   22339.65517139 -.00002795  00000-0 -15747-3 0  9995,2 53787  53.2168 216.2217 0002068  49.1453 310.9718 15.08865111 13234,6917.804,95.436,541.099,538.238,0.0
53787.0,STARLINK-4743,PAYLOAD,2022-12-05 16:00:00,15.08862474,0.0001846,53.2155,216.1706,50.8974,11.6874,-0.0015402,-0.00024732,0.0,0 STARLINK-4743,1 53787U 22111Q   22339.66667824 -.00024732  00000-0 -15402-2 0  9995,2 53787  53.2155 216.1706 0001846  50.8974  11.6874 15.08862474 13239,6917.812,95.436,540.9540000000002,538.4,0.0
53787.0,STARLINK-4743,PAYLOAD,2022-12-06 02:51:09,15.08840583,0.0001807,53.2169,214.1415,48.3122,311.8024,0.00012282,1.667e-05,0.0,0 STARLINK-4743,1 53787U 22111Q   22340.11886243  .00001667  00000-0  12282-3 0  9999,2 53787  53.2169 214.1415 0001807  48.3122 311.8024 15.08840583 13300,6917.879,95.438,540.994,538.494,0.0
53787.0,STARLINK-4743,PAYLOAD,2022-12-06 09:12:42,15.08840476,0.0001918,53.2166,212.9528,45.5766,314.5382,7.2168e-05,8.61e-06,0.0,0 STARLINK-4743,1 53787U 22111Q   22340.38382385  .00000861  00000-0  72168-4 0  9991,2 53787  53.2166 212.9528 0001918  45.5766 314.5382 15.08840476 14156,6917.879,95.438,541.071,538.4169999999998,0.0
53787.0,STARLINK-4743,PAYLOAD,2022-12-06 18:45:01,15.08833143,0.0001821,53.2166,211.1668,51.2835,308.832,3.8986e-05,3.32e-06,0.0,0 STARLINK-4743,1 53787U 22111Q   22340.78126982  .00000332  00000-0  38986-4 0  9997,2 53787  53.2166 211.1668 0001821  51.2835 308.8320 15.08833143 14214,6917.901,95.438,541.026,538.507,0.0
53787.0,STARLINK-4743,PAYLOAD,2022-12-07 09:03:29,15.08842121,0.0001816,53.2172,208.4905,48.8129,311.302,5.7976e-05,6.35e-06,0.0,0 STARLINK-4743,1 53787U 22111Q   22341.37742555  .00000635  00000-0  57976-4 0  9999,2 53787  53.2172 208.4905 0001816  48.8129 311.3020 15.08842121 13497,6917.874,95.437,540.995,538.4830000000002,0.0
53787.0,STARLINK-4743,PAYLOAD,2022-12-07 18:35:48,15.08844693,0.0001938,53.2175,206.708,43.8084,316.3062,9.1484e-06,-1.43e-06,0.0,0 STARLINK-4743,1 53787U 22111Q   22341.77486536 -.00000143  00000-0  91484-5 0  9995,2 53787  53.2175 206.7080 0001938  43.8084 316.3062 15.08844693 14369,6917.866,95.437,541.072,538.39,0.0
53787.0,STARLINK-4743,PAYLOAD,2022-12-08 07:18:53,15.08846825,0.0001856,53.2169,204.3277,44.277,315.837,-8.966e-05,-1.715e-05,0.0,0 STARLINK-4743,1 53787U 22111Q   22342.30478426 -.00001715  00000-0 -89660-4 0  9993,2 53787  53.2169 204.3277 0001856  44.2770 315.8370 15.08846825 14444,6917.86,95.437,541.008,538.441,0.0
53787.0,STARLINK-4743,PAYLOAD,2022-12-08 23:12:45,15.08833536,0.0001774,53.2168,201.3539,47.5064,312.6078,7.2765e-05,8.7e-06,0.0,0 STARLINK-4743,1 53787U 22111Q   22342.96719399  .00000870  00000-0  72765-4 0  9999,2 53787  53.2168 201.3539 0001774  47.5064 312.6078 15.08833536 13738,6917.9,95.438,540.992,538.538,0.0
